{"type": "FeatureCollection", "features": [ {"type": "Feature", "properties": {"norad_id": 30716, "name": "FENGYUN 1C DEB", "group": "fengyun-1c-debris", "lat": -16.501116705092283, "lon": -176.64841806426807, "alt_km": 629.0612126759361, "timestamp": "2025-12-22T14:45:57.680941+00:00", "meta": {"OBJECT_NAME": "FENGYUN 1C DEB", "OBJECT_ID": "1999-025ASA", "EPOCH": "2025-12-21T11:29:45.574944", "MEAN_MOTION": 14.79788038, "ECCENTRICITY": 0.00206906, "INCLINATION": 98.8715, "RA_OF_ASC_NODE": 179.4459, "ARG_OF_PERICENTER": 54.2668, "MEAN_ANOMALY": 359.7646, "EPHEMERIS_TYPE": 0, "CLASSIFICATION_TYPE": "U", "NORAD_CAT_ID": 30716, "ELEMENT_SET_NO": 999, "REV_AT_EPOCH": 97953, "BSTAR": 0.0030225465, "MEAN_MOTION_DOT": 0.0002284, "MEAN_MOTION_DDOT": 0}, "tle": {"line1": "1 30716U 99025ASA 25355.47899971  .00022840  00000+0  30225-2 0  9995", "line2": "2 30716  98.8715 179.4459 0020690  54.2668 359.7646 14.79788038979532"}}, "geometry": {"type": "Point", "coordinates": [-176.64841806426807, -16.501116705092283]}}, {"type": "Feature", "properties": {"norad_id": 30717, "name": "FENGYUN 1C DEB", "group": "fengyun-1c-debris", "lat": -63.53545921156134, "lon": -131.03684511333475, "alt_km": 796.4497592008929, "timestamp": "2025-12-22T14:45:57.680952+00:00", "meta": {"OBJECT_NAME": "FENGYUN 1C DEB", "OBJECT_ID": "1999-025ASB", "EPOCH": "2025-12-21T03:48:25.911072", "MEAN_MOTION": 14.20584881, "ECCENTRICITY": 0.00490009, "INCLINATION": 99.0171, "RA_OF_ASC_NODE": 66.0794, "ARG_OF_PERICENTER": 233.8848, "MEAN_ANOMALY": 125.7787, "EPHEMERIS_TYPE": 0, "CLASSIFICATION_TYPE": "U", "NORAD_CAT_ID": 30717, "ELEMENT_SET_NO": 999, "REV_AT_EPOCH": 96656, "BSTAR": 0.00094660339, "MEAN_MOTION_DOT": 2.014e-05, "MEAN_MOTION_DDOT": 0}, "tle": {"line1": "1 30717U 99025ASB 25355.15863323  .00002014  00000+0  94660-3 0  9998", "line2": "2 30717  99.0171  66.0794 0049000 233.8848 125.7787 14.20584881966568"}}, "geometry": {"type": "Point", "coordinates": [-131.03684511333475, -63.53545921156134]}}, {"type": "Feature", "properties": {"norad_id": 30718, "name": "FENGYUN 1C DEB", "group": "fengyun-1c-debris", "lat": 81.10395124816844, "lon": -12.529966194426695, "alt_km": 770.8227360459514, "timestamp": "2025-12-22T14:45:57.680962+00:00", "meta": {"OBJECT_NAME": "FENGYUN 1C DEB", "OBJECT_ID": "1999-025ASC", "EPOCH": "2025-12-21T16:25:46.622496", "MEAN_MOTION": 14.24407407, "ECCENTRICITY": 0.00571742, "INCLINATION": 98.8903, "RA_OF_ASC_NODE": 76.1909, "ARG_OF_PERICENTER": 131.3068, "MEAN_ANOMALY": 229.3052, "EPHEMERIS_TYPE": 0, "CLASSIFICATION_TYPE": "U", "NORAD_CAT_ID": 30718, "ELEMENT_SET_NO": 999, "REV_AT_EPOCH": 96901, "BSTAR": 0.0011815203, "MEAN_MOTION_DOT": 2.736e-05, "MEAN_MOTION_DDOT": 0}, "tle": {"line1": "1 30718U 99025ASC 25355.68456739  .00002736  00000+0  11815-2 0  9997", "line2": "2 30718  98.8903  76.1909 0057174 131.3068 229.3052 14.24407407969017"}}, "geometry": {"type": "Point", "coordinates": [-12.529966194426695, 81.10395124816844]}}, {"type": "Feature", "properties": {"norad_id": 30719, "name": "FENGYUN 1C DEB", "group": "fengyun-1c-debris", "lat": -75.20138314213185, "lon": -77.24631128237274, "alt_km": 701.9920198126783, "timestamp": "2025-12-22T14:45:57.680972+00:00", "meta": {"OBJECT_NAME": "FENGYUN 1C DEB", "OBJECT_ID": "1999-025ASD", "EPOCH": "2025-12-21T03:02:06.375552", "MEAN_MOTION": 14.59483939, "ECCENTRICITY": 0.00106523, "INCLINATION": 98.8874, "RA_OF_ASC_NODE": 137.4798, "ARG_OF_PERICENTER": 172.891, "MEAN_ANOMALY": 187.2441, "EPHEMERIS_TYPE": 0, "CLASSIFICATION_TYPE": "U", "NORAD_CAT_ID": 30719, "ELEMENT_SET_NO": 999, "REV_AT_EPOCH": 97571, "BSTAR": 0.0021584794, "MEAN_MOTION_DOT": 0.0001021, "MEAN_MOTION_DDOT": 0}, "tle": {"line1": "1 30719U 99025ASD 25355.12646268  .00010210  00000+0  21585-2 0  9996", "line2": "2 30719  98.8874 137.4798 0010652 172.8910 187.2441 14.59483939975718"}}, "geometry": {"type": "Point", "coordinates": [-77.24631128237274, -75.20138314213185]}}, {"type": "Feature", "properties": {"norad_id": 30720, "name": "FENGYUN 1C DEB", "group": "fengyun-1c-debris", "lat": -78.00252934376894, "lon": -141.049611834304, "alt_km": 780.3789274791015, "timestamp": "2025-12-22T14:45:57.680983+00:00", "meta": {"OBJECT_NAME": "FENGYUN 1C DEB", "OBJECT_ID": "1999-025ASE", "EPOCH": "2025-12-20T11:19:26.302944", "MEAN_MOTION": 14.29137577, "ECCENTRICITY": 0.00324193, "INCLINATION": 99.0359, "RA_OF_ASC_NODE": 168.2428, "ARG_OF_PERICENTER": 306.4307, "MEAN_ANOMALY": 110.1757, "EPHEMERIS_TYPE": 0, "CLASSIFICATION_TYPE": "U", "NORAD_CAT_ID": 30720, "ELEMENT_SET_NO": 999, "REV_AT_EPOCH": 97599, "BSTAR": 0.00029074255, "MEAN_MOTION_DOT": 6.94e-06, "MEAN_MOTION_DDOT": 0}, "tle": {"line1": "1 30720U 99025ASE 25354.47183221  .00000694  00000+0  29074-3 0  9997", "line2": "2 30720  99.0359 168.2428 0032419 306.4307 110.1757 14.29137577975999"}}, "geometry": {"type": "Point", "coordinates": [-141.049611834304, -78.00252934376894]}}, {"type": "Feature", "properties": {"norad_id": 30721, "name": "FENGYUN 1C DEB", "group": "fengyun-1c-debris", "lat": -56.69558832029519, "lon": -64.88054492565959, "alt_km": 654.597906064977, "timestamp": "2025-12-22T14:45:57.680993+00:00", "meta": {"OBJECT_NAME": "FENGYUN 1C DEB", "OBJECT_ID": "1999-025ASF", "EPOCH": "2025-12-22T04:27:32.053824", "MEAN_MOTION": 14.7221586, "ECCENTRICITY": 0.00283889, "INCLINATION": 98.7102, "RA_OF_ASC_NODE": 128.1539, "ARG_OF_PERICENTER": 310.453, "MEAN_ANOMALY": 172.6995, "EPHEMERIS_TYPE": 0, "CLASSIFICATION_TYPE": "U", "NORAD_CAT_ID": 30721, "ELEMENT_SET_NO": 999, "REV_AT_EPOCH": 97981, "BSTAR": 0.0034654087, "MEAN_MOTION_DOT": 0.00022006, "MEAN_MOTION_DDOT": 0}, "tle": {"line1": "1 30721U 99025ASF 25356.18578766  .00022006  00000+0  34654-2 0  9990", "line2": "2 30721  98.7102 128.1539 0028388 310.4530 172.6995 14.72215860979815"}}, "geometry": {"type": "Point", "coordinates": [-64.88054492565959, -56.69558832029519]}}, {"type": "Feature", "properties": {"norad_id": 30723, "name": "FENGYUN 1C DEB", "group": "fengyun-1c-debris", "lat": 74.13822723628756, "lon": -63.79677018543329, "alt_km": 753.9958369636533, "timestamp": "2025-12-22T14:45:57.681004+00:00", "meta": {"OBJECT_NAME": "FENGYUN 1C DEB", "OBJECT_ID": "1999-025ASH", "EPOCH": "2025-12-22T04:25:37.406208", "MEAN_MOTION": 14.41457285, "ECCENTRICITY": 0.00162258, "INCLINATION": 98.843, "RA_OF_ASC_NODE": 82.5346, "ARG_OF_PERICENTER": 234.5324, "MEAN_ANOMALY": 154.6014, "EPHEMERIS_TYPE": 0, "CLASSIFICATION_TYPE": "U", "NORAD_CAT_ID": 30723, "ELEMENT_SET_NO": 999, "REV_AT_EPOCH": 97507, "BSTAR": 0.0022122012, "MEAN_MOTION_DOT": 7.148e-05, "MEAN_MOTION_DDOT": 0}, "tle": {"line1": "1 30723U 99025ASH 25356.18446072  .00007148  00000+0  22122-2 0  9993", "line2": "2 30723  98.8430  82.5346 0016225 234.5324 154.6014 14.41457285975076"}}, "geometry": {"type": "Point", "coordinates": [-63.79677018543329, 74.13822723628756]}}, {"type": "Feature", "properties": {"norad_id": 30724, "name": "FENGYUN 1C DEB", "group": "fengyun-1c-debris", "lat": -38.77625348216526, "lon": -5.472534961613039, "alt_km": 709.4271682834469, "timestamp": "2025-12-22T14:45:57.681014+00:00", "meta": {"OBJECT_NAME": "FENGYUN 1C DEB", "OBJECT_ID": "1999-025ASJ", "EPOCH": "2025-12-21T06:50:28.140288", "MEAN_MOTION": 14.37068864, "ECCENTRICITY": 0.0093076, "INCLINATION": 99.3156, "RA_OF_ASC_NODE": 180.6656, "ARG_OF_PERICENTER": 234.9, "MEAN_ANOMALY": 306.7375, "EPHEMERIS_TYPE": 0, "CLASSIFICATION_TYPE": "U", "NORAD_CAT_ID": 30724, "ELEMENT_SET_NO": 999, "REV_AT_EPOCH": 98575, "BSTAR": 0.00034681, "MEAN_MOTION_DOT": 1.029e-05, "MEAN_MOTION_DDOT": 0}, "tle": {"line1": "1 30724U 99025ASJ 25355.28504792  .00001029  00000+0  34681-3 0  9994", "line2": "2 30724  99.3156 180.6656 0093076 234.9000 306.7375 14.37068864985758"}}, "geometry": {"type": "Point", "coordinates": [-5.472534961613039, -38.77625348216526]}}, {"type": "Feature", "properties": {"norad_id": 30725, "name": "FENGYUN 1C DEB", "group": "fengyun-1c-debris", "lat": -7.713248223996516, "lon": 66.77390638448949, "alt_km": 780.5947853869147, "timestamp": "2025-12-22T14:45:57.681024+00:00", "meta": {"OBJECT_NAME": "FENGYUN 1C DEB", "OBJECT_ID": "1999-025ASK", "EPOCH": "2025-12-22T04:56:28.129632", "MEAN_MOTION": 14.16112694, "ECCENTRICITY": 0.00868185, "INCLINATION": 99.0069, "RA_OF_ASC_NODE": 65.1291, "ARG_OF_PERICENTER": 3.2107, "MEAN_ANOMALY": 63.4551, "EPHEMERIS_TYPE": 0, "CLASSIFICATION_TYPE": "U", "NORAD_CAT_ID": 30725, "ELEMENT_SET_NO": 999, "REV_AT_EPOCH": 96482, "BSTAR": 0.0011714279, "MEAN_MOTION_DOT": 2.356e-05, "MEAN_MOTION_DDOT": 0}, "tle": {"line1": "1 30725U 99025ASK 25356.20588113  .00002356  00000+0  11714-2 0  9992", "line2": "2 30725  99.0069  65.1291 0086818   3.2107  63.4551 14.16112694964828"}}, "geometry": {"type": "Point", "coordinates": [66.77390638448949, -7.713248223996516]}}, {"type": "Feature", "properties": {"norad_id": 30726, "name": "FENGYUN 1C DEB", "group": "fengyun-1c-debris", "lat": 35.17567921780604, "lon": -174.74600817410908, "alt_km": 825.8749971726393, "timestamp": "2025-12-22T14:45:57.681034+00:00", "meta": {"OBJECT_NAME": "FENGYUN 1C DEB", "OBJECT_ID": "1999-025ASL", "EPOCH": "2025-12-22T06:10:50.632608", "MEAN_MOTION": 14.09335877, "ECCENTRICITY": 0.00783793, "INCLINATION": 99.2678, "RA_OF_ASC_NODE": 358.2779, "ARG_OF_PERICENTER": 199.5944, "MEAN_ANOMALY": 291.3923, "EPHEMERIS_TYPE": 0, "CLASSIFICATION_TYPE": "U", "NORAD_CAT_ID": 30726, "ELEMENT_SET_NO": 999, "REV_AT_EPOCH": 96117, "BSTAR": 0.0010278257, "MEAN_MOTION_DOT": 1.796e-05, "MEAN_MOTION_DDOT": 0}, "tle": {"line1": "1 30726U 99025ASL 25356.25753047  .00001796  00000+0  10278-2 0  9999", "line2": "2 30726  99.2678 358.2779 0078379 199.5944 291.3923 14.09335877961177"}}, "geometry": {"type": "Point", "coordinates": [-174.74600817410908, 35.17567921780604]}}]}